[{"OBJECT_NAME":"PLEIADES 1B","OBJECT_ID":"2012-068A","EPOCH":"2026-03-09T22:47:56.825664","MEAN_MOTION":14.5852732,"ECCENTRICITY":0.0001609,"INCLINATION":98.2009,"RA_OF_ASC_NODE":145.3433,"ARG_OF_PERICENTER":85.836,"MEAN_ANOMALY":274.3023,"EPHEMERIS_TYPE":0,"CLASSIFICATION_TYPE":"U","NORAD_CAT_ID":39019,"ELEMENT_SET_NO":999,"REV_AT_EPOCH":70638,"BSTAR":0.0001012296,"MEAN_MOTION_DOT":4.25e-6,"MEAN_MOTION_DDOT":0},{"OBJECT_NAME":"COSMOS 2251 DEB","OBJECT_ID":"1993-036ER","EPOCH":"2026-03-09T21:24:17.066016","MEAN_MOTION":14.60932481,"ECCENTRICITY":0.00277707,"INCLINATION":74.0163,"RA_OF_ASC_NODE":230.8245,"ARG_OF_PERICENTER":358.8465,"MEAN_ANOMALY":1.2632,"EPHEMERIS_TYPE":0,"CLASSIFICATION_TYPE":"U","NORAD_CAT_ID":33936,"ELEMENT_SET_NO":999,"REV_AT_EPOCH":90162,"BSTAR":0.00081812298,"MEAN_MOTION_DOT":4.001e-5,"MEAN_MOTION_DDOT":0}]
